[{"OBJECT_NAME":"COSMOS 2251 DEB","OBJECT_ID":"1993-036BDV","EPOCH":"2026-03-06T10:46:56.686080","MEAN_MOTION":13.96598128,"ECCENTRICITY":0.02599161,"INCLINATION":74.1276,"RA_OF_ASC_NODE":226.5567,"ARG_OF_PERICENTER":239.7539,"MEAN_ANOMALY":117.7635,"EPHEMERIS_TYPE":0,"CLASSIFICATION_TYPE":"U","NORAD_CAT_ID":36559,"ELEMENT_SET_NO":999,"REV_AT_EPOCH":82262,"BSTAR":0.0056024458,"MEAN_MOTION_DOT":0.00010304,"MEAN_MOTION_DDOT":0},{"OBJECT_NAME":"COSMOS 2251 DEB","OBJECT_ID":"1993-036BEC","EPOCH":"2026-03-04T06:24:01.253088","MEAN_MOTION":14.61498176,"ECCENTRICITY":0.00123907,"INCLINATION":74.0242,"RA_OF_ASC_NODE":18.6513,"ARG_OF_PERICENTER":66.0433,"MEAN_ANOMALY":294.2029,"EPHEMERIS_TYPE":0,"CLASSIFICATION_TYPE":"U","NORAD_CAT_ID":36614,"ELEMENT_SET_NO":999,"REV_AT_EPOCH":66803,"BSTAR":0.002142471,"MEAN_MOTION_DOT":0.00010623,"MEAN_MOTION_DDOT":0},{"OBJECT_NAME":"COSMOS 2251 DEB","OBJECT_ID":"1993-036BEL","EPOCH":"2026-02-23T12:43:37.182144","MEAN_MOTION":14.76968215,"ECCENTRICITY":0.0065484,"INCLINATION":74.0161,"RA_OF_ASC_NODE":2.6562,"ARG_OF_PERICENTER":120.9498,"MEAN_ANOMALY":239.8134,"EPHEMERIS_TYPE":0,"CLASSIFICATION_TYPE":"U","NORAD_CAT_ID":36622,"ELEMENT_SET_NO":999,"REV_AT_EPOCH":67824,"BSTAR":0.00062497,"MEAN_MOTION_DOT":4.528e-5,"MEAN_MOTION_DDOT":0},{"OBJECT_NAME":"COSMOS 2251 DEB","OBJECT_ID":"1993-036BEW","EPOCH":"2026-02-22T14:36:44.922528","MEAN_MOTION":14.43608641,"ECCENTRICITY":0.00349375,"INCLINATION":74.0025,"RA_OF_ASC_NODE":158.5593,"ARG_OF_PERICENTER":253.8426,"MEAN_ANOMALY":105.8884,"EPHEMERIS_TYPE":0,"CLASSIFICATION_TYPE":"U","NORAD_CAT_ID":36632,"ELEMENT_SET_NO":999,"REV_AT_EPOCH":66252,"BSTAR":0.00078679809,"MEAN_MOTION_DOT":2.661e-5,"MEAN_MOTION_DDOT":0},{"OBJECT_NAME":"COSMOS 2251 DEB","OBJECT_ID":"1993-036BFE","EPOCH":"2026-03-07T03:18:24.388992","MEAN_MOTION":15.02517078,"ECCENTRICITY":0.0092205,"INCLINATION":74.0306,"RA_OF_ASC_NODE":349.3261,"ARG_OF_PERICENTER":46.4493,"MEAN_ANOMALY":314.4305,"EPHEMERIS_TYPE":0,"CLASSIFICATION_TYPE":"U","NORAD_CAT_ID":37084,"ELEMENT_SET_NO":999,"REV_AT_EPOCH":67534,"BSTAR":0.00074472,"MEAN_MOTION_DOT":0.00010827,"MEAN_MOTION_DDOT":0},{"OBJECT_NAME":"COSMOS 2251 DEB","OBJECT_ID":"1993-036BFK","EPOCH":"2026-03-05T01:21:55.188864","MEAN_MOTION":14.5490524,"ECCENTRICITY":0.01291083,"INCLINATION":74.0391,"RA_OF_ASC_NODE":350.1219,"ARG_OF_PERICENTER":70.209,"MEAN_ANOMALY":291.294,"EPHEMERIS_TYPE":0,"CLASSIFICATION_TYPE":"U","NORAD_CAT_ID":37089,"ELEMENT_SET_NO":999,"REV_AT_EPOCH":67306,"BSTAR":0.0031251352,"MEAN_MOTION_DOT":0.00015024,"MEAN_MOTION_DDOT":0},{"OBJECT_NAME":"COSMOS 2251 DEB","OBJECT_ID":"1993-036BFQ","EPOCH":"2026-02-18T05:23:11.166720","MEAN_MOTION":14.38322796,"ECCENTRICITY":0.0084952,"INCLINATION":74.1128,"RA_OF_ASC_NODE":357.4013,"ARG_OF_PERICENTER":304.6936,"MEAN_ANOMALY":54.6234,"EPHEMERIS_TYPE":0,"CLASSIFICATION_TYPE":"U","NORAD_CAT_ID":37094,"ELEMENT_SET_NO":999,"REV_AT_EPOCH":85476,"BSTAR":0.0012532,"MEAN_MOTION_DOT":3.954e-5,"MEAN_MOTION_DDOT":0},{"OBJECT_NAME":"COSMOS 2251 DEB","OBJECT_ID":"1993-036BFR","EPOCH":"2026-03-02T07:09:26.465472","MEAN_MOTION":14.03767007,"ECCENTRICITY":0.01880311,"INCLINATION":73.8479,"RA_OF_ASC_NODE":49.7342,"ARG_OF_PERICENTER":93.7026,"MEAN_ANOMALY":268.5631,"EPHEMERIS_TYPE":0,"CLASSIFICATION_TYPE":"U","NORAD_CAT_ID":37095,"ELEMENT_SET_NO":999,"REV_AT_EPOCH":63752,"BSTAR":0.00098012534,"MEAN_MOTION_DOT":1.782e-5,"MEAN_MOTION_DDOT":0},{"OBJECT_NAME":"COSMOS 2251 DEB","OBJECT_ID":"1993-036BFX","EPOCH":"2026-03-01T23:59:26.963232","MEAN_MOTION":14.66239686,"ECCENTRICITY":0.0041685,"INCLINATION":74.0339,"RA_OF_ASC_NODE":301.2001,"ARG_OF_PERICENTER":5.5095,"MEAN_ANOMALY":354.6523,"EPHEMERIS_TYPE":0,"CLASSIFICATION_TYPE":"U","NORAD_CAT_ID":37101,"ELEMENT_SET_NO":999,"REV_AT_EPOCH":66833,"BSTAR":0.0010266,"MEAN_MOTION_DOT":5.702e-5,"MEAN_MOTION_DDOT":0},{"OBJECT_NAME":"COSMOS 2251 DEB","OBJECT_ID":"1993-036BGE","EPOCH":"2026-03-06T13:47:39.885216","MEAN_MOTION":14.42042309,"ECCENTRICITY":0.00911615,"INCLINATION":74.0421,"RA_OF_ASC_NODE":285.2853,"ARG_OF_PERICENTER":340.457,"MEAN_ANOMALY":19.3098,"EPHEMERIS_TYPE":0,"CLASSIFICATION_TYPE":"U","NORAD_CAT_ID":37108,"ELEMENT_SET_NO":999,"REV_AT_EPOCH":86715,"BSTAR":0.001041987,"MEAN_MOTION_DOT":3.569e-5,"MEAN_MOTION_DDOT":0},{"OBJECT_NAME":"COSMOS 2251 DEB","OBJECT_ID":"1993-036BGY","EPOCH":"2026-03-01T01:33:38.892672","MEAN_MOTION":14.73348638,"ECCENTRICITY":0.01207011,"INCLINATION":73.9501,"RA_OF_ASC_NODE":201.0621,"ARG_OF_PERICENTER":60.0186,"MEAN_ANOMALY":301.2902,"EPHEMERIS_TYPE":0,"CLASSIFICATION_TYPE":"U","NORAD_CAT_ID":37126,"ELEMENT_SET_NO":999,"REV_AT_EPOCH":9252,"BSTAR":0.00023487256,"MEAN_MOTION_DOT":1.671e-5,"MEAN_MOTION_DDOT":0},{"OBJECT_NAME":"COSMOS 2251 DEB","OBJECT_ID":"1993-036BHJ","EPOCH":"2026-03-06T08:19:23.335968","MEAN_MOTION":13.60653096,"ECCENTRICITY":0.03952158,"INCLINATION":73.9358,"RA_OF_ASC_NODE":199.3544,"ARG_OF_PERICENTER":196.2632,"MEAN_ANOMALY":162.5497,"EPHEMERIS_TYPE":0,"CLASSIFICATION_TYPE":"U","NORAD_CAT_ID":37270,"ELEMENT_SET_NO":999,"REV_AT_EPOCH":78206,"BSTAR":0.0057248325,"MEAN_MOTION_DOT":7.236e-5,"MEAN_MOTION_DDOT":0},{"OBJECT_NAME":"COSMOS 2251 DEB","OBJECT_ID":"1993-036BHS","EPOCH":"2026-03-03T17:42:21.154176","MEAN_MOTION":14.15529534,"ECCENTRICITY":0.02981434,"INCLINATION":73.7837,"RA_OF_ASC_NODE":203.0888,"ARG_OF_PERICENTER":11.081,"MEAN_ANOMALY":47.5735,"EPHEMERIS_TYPE":0,"CLASSIFICATION_TYPE":"U","NORAD_CAT_ID":37278,"ELEMENT_SET_NO":999,"REV_AT_EPOCH":64975,"BSTAR":0.00087850859,"MEAN_MOTION_DOT":2.617e-5,"MEAN_MOTION_DDOT":0},{"OBJECT_NAME":"COSMOS 2251 DEB","OBJECT_ID":"1993-036BHU","EPOCH":"2026-03-01T14:12:16.196832","MEAN_MOTION":14.1982047,"ECCENTRICITY":0.01307043,"INCLINATION":74.0295,"RA_OF_ASC_NODE":276.0526,"ARG_OF_PERICENTER":25.3733,"MEAN_ANOMALY":335.3752,"EPHEMERIS_TYPE":0,"CLASSIFICATION_TYPE":"U","NORAD_CAT_ID":37280,"ELEMENT_SET_NO":999,"REV_AT_EPOCH":58442,"BSTAR":0.00098092165,"MEAN_MOTION_DOT":2.241e-5,"MEAN_MOTION_DDOT":0},{"OBJECT_NAME":"COSMOS 2251 DEB","OBJECT_ID":"1993-036BJG","EPOCH":"2026-03-06T21:05:31.521120","MEAN_MOTION":14.03980938,"ECCENTRICITY":0.0209177,"INCLINATION":74.1151,"RA_OF_ASC_NODE":263.9487,"ARG_OF_PERICENTER":245.6413,"MEAN_ANOMALY":112.2762,"EPHEMERIS_TYPE":0,"CLASSIFICATION_TYPE":"U","NORAD_CAT_ID":37292,"ELEMENT_SET_NO":999,"REV_AT_EPOCH":61029,"BSTAR":0.0013494,"MEAN_MOTION_DOT":2.566e-5,"MEAN_MOTION_DDOT":0},{"OBJECT_NAME":"COSMOS 2251 DEB","OBJECT_ID":"1993-036BJK","EPOCH":"2026-03-04T03:56:06.389376","MEAN_MOTION":14.65827607,"ECCENTRICITY":0.00472998,"INCLINATION":74.0058,"RA_OF_ASC_NODE":124.5875,"ARG_OF_PERICENTER":282.9247,"MEAN_ANOMALY":76.6641,"EPHEMERIS_TYPE":0,"CLASSIFICATION_TYPE":"U","NORAD_CAT_ID":37295,"ELEMENT_SET_NO":999,"REV_AT_EPOCH":83497,"BSTAR":0.00071054315,"MEAN_MOTION_DOT":3.913e-5,"MEAN_MOTION_DDOT":0}]
